#aP2010  7 20  0  0  0.00000000    8325 00000 00000 NAV  CSR
## 1593 172800.00000000    10.00000000 55397 0.0000000000000
+   01   L11  0  0  0  0  0  0  0  0  0  0  0  0  0  0  0  0
+          0  0  0  0  0  0  0  0  0  0  0  0  0  0  0  0  0
+          0  0  0  0  0  0  0  0  0  0  0  0  0  0  0  0  0
+          0  0  0  0  0  0  0  0  0  0  0  0  0  0  0  0  0
+          0  0  0  0  0  0  0  0  0  0  0  0  0  0  0  0  0
++         0  0  0  0  0  0  0  0  0  0  0  0  0  0  0  0  0
++         0  0  0  0  0  0  0  0  0  0  0  0  0  0  0  0  0
++         0  0  0  0  0  0  0  0  0  0  0  0  0  0  0  0  0
++         0  0  0  0  0  0  0  0  0  0  0  0  0  0  0  0  0
++         0  0  0  0  0  0  0  0  0  0  0  0  0  0  0  0  0
%c cc cc ccc ccc cccc cccc cccc cccc ccccc ccccc ccccc ccccc
%c cc cc ccc ccc cccc cccc cccc cccc ccccc ccccc ccccc ccccc
%f  0.0000000  0.000000000  0.00000000000  0.000000000000000
%f  0.0000000  0.000000000  0.00000000000  0.000000000000000
%i    0    0    0    0      0      0      0      0         0
%i    0    0    0    0      0      0      0      0         0
/* CCCCCCCCCCCCCCCCCCCCCCCCCCCCCCCCCCCCCCCCCCCCCCCCCCCCCCCCC
/* CCCCCCCCCCCCCCCCCCCCCCCCCCCCCCCCCCCCCCCCCCCCCCCCCCCCCCCCC
/* CCCCCCCCCCCCCCCCCCCCCCCCCCCCCCCCCCCCCCCCCCCCCCCCCCCCCCCCC
/* CCCCCCCCCCCCCCCCCCCCCCCCCCCCCCCCCCCCCCCCCCCCCCCCCCCCCCCCC
*  2010  7 20  2 20 10.00000000
PL11   6058.567524  -2001.405685  -1623.939006     -0.144500
*  2010  7 20  2 20 20.00000000
PL11   6036.727323  -2005.057830  -1700.136038     -0.147500
*  2010  7 20  2 20 30.00000000
PL11   6014.038761  -2008.396662  -1776.092833     -0.151900
*  2010  7 20  2 20 40.00000000
PL11   5990.510574  -2011.423232  -1851.802713     -0.152100
*  2010  7 20  2 20 50.00000000
PL11   5966.145179  -2014.136000  -1927.252490     -0.150000
*  2010  7 20  2 21  0.00000000
PL11   5940.946058  -2016.531613  -2002.432647     -0.145400
*  2010  7 20  2 21 10.00000000
PL11   5914.915867  -2018.608455  -2077.331701     -0.148700
*  2010  7 20  2 21 20.00000000
PL11   5888.060245  -2020.367151  -2151.940183     -0.145500
*  2010  7 20  2 21 30.00000000
PL11   5860.383613  -2021.804166  -2226.246662     -0.152700
*  2010  7 20  2 21 40.00000000
PL11   5831.890553  -2022.919453  -2300.242676     -0.152500
*  2010  7 20  2 21 50.00000000
PL11   5802.586006  -2023.711178  -2373.916132     -0.153300
*  2010  7 20  2 22  0.00000000
PL11   5772.473185  -2024.179115  -2447.257670     -0.151800
*  2010  7 20  2 22 10.00000000
PL11   5741.559869  -2024.320993  -2520.257109     -0.142800
*  2010  7 20  2 22 20.00000000
PL11   5709.848528  -2024.135951  -2592.903605     -0.147100
*  2010  7 20  2 22 30.00000000
PL11   5677.343594  -2023.623105  -2665.187766     -0.154400
*  2010  7 20  2 22 40.00000000
PL11   5644.052162  -2022.781642  -2737.099536     -0.156900
*  2010  7 20  2 22 50.00000000
PL11   5609.982256  -2021.610330  -2808.629927     -0.152300
*  2010  7 20  2 23  0.00000000
PL11   5575.132728  -2020.108227  -2879.767070     -0.152200
*  2010  7 20  2 23 10.00000000
PL11   5539.515443  -2018.275070  -2950.502635     -0.148600
*  2010  7 20  2 23 20.00000000
PL11   5503.131555  -2016.109023  -3020.826407     -0.145600
*  2010  7 20  2 23 30.00000000
PL11   5465.989534  -2013.611373  -3090.729146     -0.145400
*  2010  7 20  2 23 40.00000000
PL11   5428.094782  -2010.778819  -3160.200732     -0.145000
*  2010  7 20  2 23 50.00000000
PL11   5389.453098  -2007.612867  -3229.231873     -0.147100
*  2010  7 20  2 24  0.00000000
PL11   5350.070575  -2004.112302  -3297.813494     -0.148500
*  2010  7 20  2 24 10.00000000
PL11   5309.952585  -2000.276347  -3365.935707     -0.151600
*  2010  7 20  2 24 20.00000000
PL11   5269.107455  -1996.105031  -3433.589860     -0.154900
*  2010  7 20  2 24 30.00000000
PL11   5227.541799  -1991.597654  -3500.766836     -0.153500
*  2010  7 20  2 24 40.00000000
PL11   5185.259969  -1986.754639  -3567.456167     -0.151400
*  2010  7 20  2 24 50.00000000
PL11   5142.269979  -1981.574459  -3633.649761     -0.158700
*  2010  7 20  2 25  0.00000000
PL11   5098.579257  -1976.058917  -3699.339642     -0.151800
*  2010  7 20  2 25 10.00000000
PL11   5054.193186  -1970.205951  -3764.515375     -0.156600
*  2010  7 20  2 25 20.00000000
PL11   5009.119852  -1964.015987  -3829.168589     -0.160200
*  2010  7 20  2 25 30.00000000
PL11   4963.365063  -1957.490147  -3893.290775     -0.159400
*  2010  7 20  2 25 40.00000000
PL11   4916.937759  -1950.627482  -3956.873933     -0.154400
*  2010  7 20  2 25 50.00000000
PL11   4869.841495  -1943.427166  -4019.907920     -0.156400
*  2010  7 20  2 26  0.00000000
PL11   4822.089773  -1935.891670  -4082.386783     -0.152700
*  2010  7 20  2 26 20.00000000
PL11   4724.638562  -1919.810071  -4205.639590     -0.153600
*  2010  7 20  2 26 30.00000000
PL11   4674.953618  -1911.265627  -4266.397392     -0.157000
*  2010  7 20  2 26 40.00000000
PL11   4624.639480  -1902.386850  -4326.565929     -0.156200
*  2010  7 20  2 26 50.00000000
PL11   4573.706225  -1893.173489  -4386.139048     -0.143600
*  2010  7 20  2 27  0.00000000
PL11   4522.160760  -1883.626617  -4445.106757     -0.147700
*  2010  7 20  2 27 10.00000000
PL11   4470.007498  -1873.745481  -4503.460330     -0.155100
*  2010  7 20  2 27 20.00000000
PL11   4417.258641  -1863.531430  -4561.194341     -0.155700
*  2010  7 20  2 27 30.00000000
PL11   4363.919688  -1852.985399  -4618.299504     -0.157500
*  2010  7 20  2 27 40.00000000
PL11   4310.002096  -1842.108407  -4674.771027     -0.153300
*  2010  7 20  2 27 50.00000000
PL11   4255.510955  -1830.900198  -4730.598709     -0.151200
*  2010  7 20  2 28  0.00000000
PL11   4200.456720  -1819.362190  -4785.776404     -0.154700
*  2010  7 20  2 28 10.00000000
PL11   4144.846019  -1807.495953  -4840.296972     -0.156900
*  2010  7 20  2 28 20.00000000
PL11   4088.687757  -1795.301104  -4894.153055     -0.165600
*  2010  7 20  2 28 30.00000000
PL11   4031.991256  -1782.779812  -4947.337848     -0.164300
*  2010  7 20  2 28 40.00000000
PL11   3974.764578  -1769.933112  -4999.845831     -0.167100
*  2010  7 20  2 28 50.00000000
PL11   3917.016514  -1756.761947  -5051.669941     -0.163500
*  2010  7 20  2 29  0.00000000
PL11   3858.754998  -1743.266532  -5102.799404     -0.171300
*  2010  7 20  2 29 10.00000000
PL11   3799.990161  -1729.450048  -5153.234076     -0.167000
*  2010  7 20  2 29 20.00000000
PL11   3740.729880  -1715.312635  -5202.964813     -0.150000
*  2010  7 20  2 29 30.00000000
PL11   3680.982657  -1700.855385  -5251.982568     -0.150300
*  2010  7 20  2 29 40.00000000
PL11   3620.758087  -1686.080294  -5300.286725     -0.149600
*  2010  7 20  2 29 50.00000000
PL11   3560.065451  -1670.988939  -5347.866258     -0.151500
*  2010  7 20  2 30  0.00000000
PL11   3498.913526  -1655.582469  -5394.717745     -0.151800
*  2010  7 20  2 30 10.00000000
PL11   3437.311189  -1639.863376  -5440.837017     -0.149000
*  2010  7 20  2 30 20.00000000
PL11   3375.268230  -1623.832330  -5486.214492     -0.145400
*  2010  7 20  2 30 30.00000000
PL11   3312.793152  -1607.490929  -5530.846924     -0.143700
*  2010  7 20  2 30 40.00000000
PL11   3249.894967  -1590.841688  -5574.727398     -0.139600
*  2010  7 20  2 30 50.00000000
PL11   3186.583893  -1573.886036  -5617.851910     -0.133500
*  2010  7 20  2 31  0.00000000
PL11   3122.868192  -1556.625313  -5660.214215     -0.131100
*  2010  7 20  2 31 10.00000000
PL11   3058.758798  -1539.062714  -5701.812423     -0.131300
*  2010  7 20  2 31 20.00000000
PL11   2994.262637  -1521.199356  -5742.636619     -0.137900
*  2010  7 20  2 31 30.00000000
PL11   2929.391999  -1503.037028  -5782.684678     -0.128700
*  2010  7 20  2 31 40.00000000
PL11   2864.155572  -1484.579121  -5821.951504     -0.124200
*  2010  7 20  2 31 50.00000000
PL11   2798.561140  -1465.826307  -5860.431931     -0.128000
*  2010  7 20  2 32  0.00000000
PL11   2732.619443  -1446.780820  -5898.122607     -0.124200
*  2010  7 20  2 32 10.00000000
PL11   2666.339567  -1427.445002  -5935.017785     -0.126700
*  2010  7 20  2 32 20.00000000
PL11   2599.732094  -1407.821853  -5971.114139     -0.127200
*  2010  7 20  2 32 30.00000000
PL11   2532.805382  -1387.913037  -6006.406555     -0.122200
*  2010  7 20  2 32 40.00000000
PL11   2465.570077  -1367.721191  -6040.892126     -0.127800
*  2010  7 20  2 32 50.00000000
PL11   2398.035949  -1347.248947  -6074.566458     -0.127300
*  2010  7 20  2 33  0.00000000
PL11   2330.212234  -1326.497633  -6107.424590     -0.127400
*  2010  7 20  2 33 10.00000000
PL11   2262.108750  -1305.471342  -6139.463759     -0.131000
*  2010  7 20  2 33 20.00000000
PL11   2193.734993  -1284.171605  -6170.680880     -0.130700
*  2010  7 20  2 33 30.00000000
PL11   2125.100933  -1262.601096  -6201.072727     -0.130500
*  2010  7 20  2 33 40.00000000
PL11   2056.216699  -1240.763170  -6230.634036     -0.131900
*  2010  7 20  2 33 50.00000000
PL11   1987.090922  -1218.659601  -6259.364998     -0.129300
*  2010  7 20  2 34  0.00000000
PL11   1917.734975  -1196.293166  -6287.256143     -0.138400
*  2010  7 20  2 34 10.00000000
PL11   1848.157589  -1173.667700  -6314.313961     -0.123800
*  2010  7 20  2 34 20.00000000
PL11   1778.368723  -1150.784881  -6340.527077     -0.124800
*  2010  7 20  2 34 30.00000000
PL11   1708.378071  -1127.647941  -6365.897708     -0.124300
*  2010  7 20  2 34 40.00000000
PL11   1638.195781  -1104.259831  -6390.420928     -0.120100
*  2010  7 20  2 34 50.00000000
PL11   1567.831875  -1080.623850  -6414.095506     -0.122200
*  2010  7 20  2 35  0.00000000
PL11   1497.295717  -1056.742282  -6436.917676     -0.124400
*  2010  7 20  2 35 10.00000000
PL11   1426.597295  -1032.618741  -6458.887330     -0.112500
*  2010  7 20  2 35 20.00000000
PL11   1355.746754  -1008.255864  -6479.997479     -0.121400
*  2010  7 20  2 35 30.00000000
PL11   1284.753287   -983.657401  -6500.253776     -0.118200
*  2010  7 20  2 35 40.00000000
PL11   1213.627998   -958.825656  -6519.648875     -0.106800
EOF
